{
    "links": {
        "self": "http://www.neowsapp.com/rest/v1/neo/3836848?api_key=iIulBulltgU6a56xZRHN4H3l9WmuAYTsLGpBGhQ2"
    },
    "id": "3836848",
    "neo_reference_id": "3836848",
    "name": "(2018 XK2)",
    "designation": "2018 XK2",
    "nasa_jpl_url": "http://ssd.jpl.nasa.gov/sbdb.cgi?sstr=3836848",
    "absolute_magnitude_h": 24.5,
    "estimated_diameter": {
        "kilometers": {
            "estimated_diameter_min": 0.0334622374,
            "estimated_diameter_max": 0.0748238376
        },
        "meters": {
            "estimated_diameter_min": 33.4622374455,
            "estimated_diameter_max": 74.8238376074
        },
        "miles": {
            "estimated_diameter_min": 0.0207924639,
            "estimated_diameter_max": 0.0464933628
        },
        "feet": {
            "estimated_diameter_min": 109.7842471007,
            "estimated_diameter_max": 245.4850393757
        }
    },
    "is_potentially_hazardous_asteroid": false,
    "close_approach_data": [
        {
            "close_approach_date": "1945-10-27",
            "close_approach_date_full": "1945-Oct-27 00:47",
            "epoch_date_close_approach": -763081980000,
            "relative_velocity": {
                "kilometers_per_second": "18.8701097106",
                "kilometers_per_hour": "67932.3949582226",
                "miles_per_hour": "42210.5484116801"
            },
            "miss_distance": {
                "astronomical": "0.4440693855",
                "lunar": "172.7429909595",
                "kilometers": "66431834.203008885",
                "miles": "41278827.649077213"
            },
            "orbiting_body": "Earth"
        },
        {
            "close_approach_date": "1948-03-31",
            "close_approach_date_full": "1948-Mar-31 03:04",
            "epoch_date_close_approach": -686523360000,
            "relative_velocity": {
                "kilometers_per_second": "4.299986001",
                "kilometers_per_hour": "15479.9496037115",
                "miles_per_hour": "9618.6386857062"
            },
            "miss_distance": {
                "astronomical": "1.2370415113",
                "lunar": "481.2091478957",
                "kilometers": "185058775.192060931",
                "miles": "114990190.7383496078"
            },
            "orbiting_body": "Juptr"
        },
        {
            "close_approach_date": "1960-08-15",
            "close_approach_date_full": "1960-Aug-15 08:04",
            "epoch_date_close_approach": -295977360000,
            "relative_velocity": {
                "kilometers_per_second": "7.3939287694",
                "kilometers_per_hour": "26618.143569715",
                "miles_per_hour": "16539.4792641932"
            },
            "miss_distance": {
                "astronomical": "1.9405171011",
                "lunar": "754.8611523279",
                "kilometers": "290297225.023134657",
                "miles": "180382331.1895339866"
            },
            "orbiting_body": "Juptr"
        },
        {
            "close_approach_date": "2018-12-18",
            "close_approach_date_full": "2018-Dec-18 04:14",
            "epoch_date_close_approach": 1545106440000,
            "relative_velocity": {
                "kilometers_per_second": "6.9275858756",
                "kilometers_per_hour": "24939.3091520918",
                "miles_per_hour": "15496.3168450873"
            },
            "miss_distance": {
                "astronomical": "0.0816545277",
                "lunar": "31.7636112753",
                "kilometers": "12215343.419775999",
                "miles": "7590262.4359028262"
            },
            "orbiting_body": "Earth"
        },
        {
            "close_approach_date": "2185-07-19",
            "close_approach_date_full": "2185-Jul-19 18:35",
            "epoch_date_close_approach": 6802079700000,
            "relative_velocity": {
                "kilometers_per_second": "4.8316113078",
                "kilometers_per_hour": "17393.8007080088",
                "miles_per_hour": "10807.8313343736"
            },
            "miss_distance": {
                "astronomical": "1.4084986588",
                "lunar": "547.9059782732",
                "kilometers": "210708399.254336756",
                "miles": "130928128.0786729928"
            },
            "orbiting_body": "Juptr"
        }
    ],
    "orbital_data": {
        "orbit_id": "5",
        "orbit_determination_date": "2019-01-26 09:26:50",
        "first_observation_date": "2018-12-10",
        "last_observation_date": "2019-01-09",
        "data_arc_in_days": 30,
        "observations_used": 38,
        "orbit_uncertainty": "7",
        "minimum_orbit_intersection": ".0757014",
        "jupiter_tisserand_invariant": "3.103",
        "epoch_osculation": "2459000.5",
        "eccentricity": ".6014529581645678",
        "semi_major_axis": "2.646391305300715",
        "inclination": "3.756217313848848",
        "ascending_node_longitude": "55.53398343018682",
        "orbital_period": "1572.459680053776",
        "perihelion_distance": "1.054711426266608",
        "perihelion_argument": "26.52576597338049",
        "aphelion_distance": "4.238071184334823",
        "perihelion_time": "2458468.438253559858",
        "mean_anomaly": "121.8105819488488",
        "mean_motion": ".2289406873616553",
        "equinox": "J2000",
        "orbit_class": {
            "orbit_class_type": "AMO",
            "orbit_class_description": "Near-Earth asteroid orbits similar to that of 1221 Amor",
            "orbit_class_range": "1.017 AU < q (perihelion) < 1.3 AU"
        }
    },
    "is_sentry_object": false
}